{
  "type": "FeatureCollection",
  "features": [
    {
      "type": "Feature",
      "properties": {
        "norad_id": 52912,
        "name": "GAOFEN-12 03",
        "group": "resource",
        "lat": 29.295427942032823,
        "lon": -123.31127239226191,
        "alt_km": 627.8312540028746,
        "timestamp": "2025-12-19T22:41:52.036976+00:00",
        "meta_object_name": "GAOFEN-12 03",
        "meta_object_id": "2022-069A",
        "meta_epoch": "2025-12-19T17:41:43.493280",
        "meta_mean_motion": 14.7962611,
        "meta_eccentricity": 0.0002005,
        "meta_inclination": 97.8489,
        "meta_ra_of_asc_node": 240.9241,
        "meta_arg_of_pericenter": 54.5151,
        "meta_mean_anomaly": 305.6248,
        "meta_ephemeris_type": 0,
        "meta_classification_type": "U",
        "meta_norad_cat_id": 52912,
        "meta_element_set_no": 999,
        "meta_rev_at_epoch": 18807,
        "meta_bstar": 0.00015868,
        "meta_mean_motion_dot": 1.139e-05,
        "meta_mean_motion_ddot": 0,
        "tle_line1": "1 52912U 22069A   25353.73730895  .00001139  00000+0  15868-3 0  9992",
        "tle_line2": "2 52912  97.8489 240.9241 0002005  54.5151 305.6248 14.79626110188075"
      },
      "geometry": {
        "type": "Point",
        "coordinates": [
          -123.31127239226191,
          29.295427942032823
        ]
      }
    },
    {
      "type": "Feature",
      "properties": {
        "norad_id": 54754,
        "name": "SWOT",
        "group": "resource",
        "lat": 66.45530968069669,
        "lon": 66.9688841110994,
        "alt_km": 886.3102110410982,
        "timestamp": "2025-12-19T22:41:52.036986+00:00",
        "meta_object_name": "SWOT",
        "meta_object_id": "2022-173A",
        "meta_epoch": "2025-12-19T17:01:44.319072",
        "meta_mean_motion": 14.00167873,
        "meta_eccentricity": 3.62e-05,
        "meta_inclination": 77.6109,
        "meta_ra_of_asc_node": 277.5814,
        "meta_arg_of_pericenter": 93.4005,
        "meta_mean_anomaly": 266.7188,
        "meta_ephemeris_type": 0,
        "meta_classification_type": "U",
        "meta_norad_cat_id": 54754,
        "meta_element_set_no": 999,
        "meta_rev_at_epoch": 15403,
        "meta_bstar": 2.4282e-05,
        "meta_mean_motion_dot": 3.3e-07,
        "meta_mean_motion_ddot": 0,
        "tle_line1": "1 54754U 22173A   25353.70954073  .00000033  00000+0  24282-4 0  9990",
        "tle_line2": "2 54754  77.6109 277.5814 0000362  93.4005 266.7188 14.00167873154031"
      },
      "geometry": {
        "type": "Point",
        "coordinates": [
          66.9688841110994,
          66.45530968069669
        ]
      }
    },
    {
      "type": "Feature",
      "properties": {
        "norad_id": 57654,
        "name": "GAOFEN-12 04",
        "group": "resource",
        "lat": -21.661337332399068,
        "lon": 86.4270380975483,
        "alt_km": 636.0679443714635,
        "timestamp": "2025-12-19T22:41:52.036996+00:00",
        "meta_object_name": "GAOFEN-12 04",
        "meta_object_id": "2023-123A",
        "meta_epoch": "2025-12-19T18:32:34.951200",
        "meta_mean_motion": 14.79718677,
        "meta_eccentricity": 0.0001236,
        "meta_inclination": 97.9127,
        "meta_ra_of_asc_node": 269.4231,
        "meta_arg_of_pericenter": 76.9668,
        "meta_mean_anomaly": 283.1682,
        "meta_ephemeris_type": 0,
        "meta_classification_type": "U",
        "meta_norad_cat_id": 57654,
        "meta_element_set_no": 999,
        "meta_rev_at_epoch": 12609,
        "meta_bstar": 0.00012929,
        "meta_mean_motion_dot": 9.2e-06,
        "meta_mean_motion_ddot": 0,
        "tle_line1": "1 57654U 23123A   25353.77262675  .00000920  00000+0  12929-3 0  9994",
        "tle_line2": "2 57654  97.9127 269.4231 0001236  76.9668 283.1682 14.79718677126090"
      },
      "geometry": {
        "type": "Point",
        "coordinates": [
          86.4270380975483,
          -21.661337332399068
        ]
      }
    },
    {
      "type": "Feature",
      "properties": {
        "norad_id": 59065,
        "name": "PARS 1",
        "group": "resource",
        "lat": 26.76503442290354,
        "lon": -38.75956021616337,
        "alt_km": 434.2744434323522,
        "timestamp": "2025-12-19T22:41:52.037006+00:00",
        "meta_object_name": "PARS 1",
        "meta_object_id": "2024-039Q",
        "meta_epoch": "2025-12-19T17:54:22.416192",
        "meta_mean_motion": 15.41124704,
        "meta_eccentricity": 0.0012121,
        "meta_inclination": 97.4638,
        "meta_ra_of_asc_node": 324.8279,
        "meta_arg_of_pericenter": 51.104,
        "meta_mean_anomaly": 309.1286,
        "meta_ephemeris_type": 0,
        "meta_classification_type": "U",
        "meta_norad_cat_id": 59065,
        "meta_element_set_no": 999,
        "meta_rev_at_epoch": 10096,
        "meta_bstar": 0.00021357,
        "meta_mean_motion_dot": 8.777e-05,
        "meta_mean_motion_ddot": 0,
        "tle_line1": "1 59065U 24039Q   25353.74609278  .00008777  00000+0  21357-3 0  9993",
        "tle_line2": "2 59065  97.4638 324.8279 0012121  51.1040 309.1286 15.41124704100961"
      },
      "geometry": {
        "type": "Point",
        "coordinates": [
          -38.75956021616337,
          26.76503442290354
        ]
      }
    },
    {
      "type": "Feature",
      "properties": {
        "norad_id": 59371,
        "name": "RESURS-P 4",
        "group": "resource",
        "lat": -61.71871819624116,
        "lon": -46.17436454797154,
        "alt_km": 477.0195488970721,
        "timestamp": "2025-12-19T22:41:52.037016+00:00",
        "meta_object_name": "RESURS-P 4",
        "meta_object_id": "2024-061A",
        "meta_epoch": "2025-12-19T19:50:08.433600",
        "meta_mean_motion": 15.32137848,
        "meta_eccentricity": 0.0001051,
        "meta_inclination": 97.2555,
        "meta_ra_of_asc_node": 300.0111,
        "meta_arg_of_pericenter": 59.2139,
        "meta_mean_anomaly": 300.9207,
        "meta_ephemeris_type": 0,
        "meta_classification_type": "U",
        "meta_norad_cat_id": 59371,
        "meta_element_set_no": 999,
        "meta_rev_at_epoch": 9629,
        "meta_bstar": 9.5869e-05,
        "meta_mean_motion_dot": 2.899e-05,
        "meta_mean_motion_ddot": 0,
        "tle_line1": "1 59371U 24061A   25353.82648650  .00002899  00000+0  95869-4 0  9993",
        "tle_line2": "2 59371  97.2555 300.0111 0001051  59.2139 300.9207 15.32137848 96291"
      },
      "geometry": {
        "type": "Point",
        "coordinates": [
          -46.17436454797154,
          -61.71871819624116
        ]
      }
    },
    {
      "type": "Feature",
      "properties": {
        "norad_id": 59625,
        "name": "LEGION 1",
        "group": "resource",
        "lat": 60.41906001034038,
        "lon": -98.0180472255612,
        "alt_km": 512.8927563138495,
        "timestamp": "2025-12-19T22:41:52.037026+00:00",
        "meta_object_name": "LEGION 1",
        "meta_object_id": "2024-081A",
        "meta_epoch": "2025-12-19T17:25:32.164608",
        "meta_mean_motion": 15.16544298,
        "meta_eccentricity": 0.0003636,
        "meta_inclination": 97.521,
        "meta_ra_of_asc_node": 68.3052,
        "meta_arg_of_pericenter": 285.9384,
        "meta_mean_anomaly": 74.1448,
        "meta_ephemeris_type": 0,
        "meta_classification_type": "U",
        "meta_norad_cat_id": 59625,
        "meta_element_set_no": 999,
        "meta_rev_at_epoch": 9033,
        "meta_bstar": 0.00016556,
        "meta_mean_motion_dot": 3.162e-05,
        "meta_mean_motion_ddot": 0,
        "tle_line1": "1 59625U 24081A   25353.72606672  .00003162  00000+0  16556-3 0  9993",
        "tle_line2": "2 59625  97.5210  68.3052 0003636 285.9384  74.1448 15.16544298 90332"
      },
      "geometry": {
        "type": "Point",
        "coordinates": [
          -98.0180472255612,
          60.41906001034038
        ]
      }
    },
    {
      "type": "Feature",
      "properties": {
        "norad_id": 59626,
        "name": "LEGION 2",
        "group": "resource",
        "lat": -60.4080056517065,
        "lon": 82.06429991103721,
        "alt_km": 520.2996534880876,
        "timestamp": "2025-12-19T22:41:52.037036+00:00",
        "meta_object_name": "LEGION 2",
        "meta_object_id": "2024-081B",
        "meta_epoch": "2025-12-19T15:02:59.546112",
        "meta_mean_motion": 15.1655654,
        "meta_eccentricity": 0.0005623,
        "meta_inclination": 97.5214,
        "meta_ra_of_asc_node": 68.2948,
        "meta_arg_of_pericenter": 263.6513,
        "meta_mean_anomaly": 96.4079,
        "meta_ephemeris_type": 0,
        "meta_classification_type": "U",
        "meta_norad_cat_id": 59626,
        "meta_element_set_no": 999,
        "meta_rev_at_epoch": 9032,
        "meta_bstar": 0.00020419,
        "meta_mean_motion_dot": 3.917e-05,
        "meta_mean_motion_ddot": 0,
        "tle_line1": "1 59626U 24081B   25353.62707808  .00003917  00000+0  20419-3 0  9997",
        "tle_line2": "2 59626  97.5214  68.2948 0005623 263.6513  96.4079 15.16556540 90324"
      },
      "geometry": {
        "type": "Point",
        "coordinates": [
          82.06429991103721,
          -60.4080056517065
        ]
      }
    }
  ]
}